[{"OBJECT_NAME":"JILIN-1 07","OBJECT_ID":"2018-008E","EPOCH":"2026-03-09T22:24:26.445888","MEAN_MOTION":15.32987507,"ECCENTRICITY":0.00101791,"INCLINATION":97.1876,"RA_OF_ASC_NODE":91.5817,"ARG_OF_PERICENTER":62.7832,"MEAN_ANOMALY":297.4447,"EPHEMERIS_TYPE":0,"CLASSIFICATION_TYPE":"U","NORAD_CAT_ID":43159,"ELEMENT_SET_NO":999,"REV_AT_EPOCH":44978,"BSTAR":0.00036439521,"MEAN_MOTION_DOT":0.00011559,"MEAN_MOTION_DDOT":0},{"OBJECT_NAME":"STARLINK-35587","OBJECT_ID":"2025-240N","EPOCH":"2026-03-09T23:47:42.279648","MEAN_MOTION":15.3021366,"ECCENTRICITY":0.00015423,"INCLINATION":53.1598,"RA_OF_ASC_NODE":61.4798,"ARG_OF_PERICENTER":97.6105,"MEAN_ANOMALY":262.5071,"EPHEMERIS_TYPE":0,"CLASSIFICATION_TYPE":"U","NORAD_CAT_ID":66158,"ELEMENT_SET_NO":999,"REV_AT_EPOCH":2203,"BSTAR":0.0011147196,"MEAN_MOTION_DOT":0.00032816,"MEAN_MOTION_DDOT":0}]
